[{"OBJECT_NAME":"STARLINK-34499","OBJECT_ID":"2025-142P","EPOCH":"2026-03-09T21:26:47.282784","MEAN_MOTION":14.98335104,"ECCENTRICITY":0.00027625,"INCLINATION":70.0016,"RA_OF_ASC_NODE":313.8245,"ARG_OF_PERICENTER":269.3887,"MEAN_ANOMALY":90.6956,"EPHEMERIS_TYPE":0,"CLASSIFICATION_TYPE":"U","NORAD_CAT_ID":64709,"ELEMENT_SET_NO":999,"REV_AT_EPOCH":3949,"BSTAR":0.00021482028,"MEAN_MOTION_DOT":2.471e-5,"MEAN_MOTION_DDOT":0},{"OBJECT_NAME":"COSMOS 434 DEB","OBJECT_ID":"1971-069C","EPOCH":"2026-03-09T06:41:44.243520","MEAN_MOTION":14.88540959,"ECCENTRICITY":0.00573215,"INCLINATION":49.5268,"RA_OF_ASC_NODE":92.2564,"ARG_OF_PERICENTER":343.1408,"MEAN_ANOMALY":16.762,"EPHEMERIS_TYPE":0,"CLASSIFICATION_TYPE":"U","NORAD_CAT_ID":5426,"ELEMENT_SET_NO":999,"REV_AT_EPOCH":87280,"BSTAR":0.00069493899,"MEAN_MOTION_DOT":6.493e-5,"MEAN_MOTION_DDOT":0}]
